{
  "norad_id": 58236,
  "name": "STARLINK-30853",
  "history": [
    {
      "epoch": "2026-03-28T15:39:37.365984Z",
      "apogee_km": 486.3856308262084,
      "perigee_km": 484.6032830094746,
      "latitude_deg": -7.632110271454163e-06,
      "longitude_deg": 117.25121550109021,
      "height_km": 485.3999371572947,
      "semi_major_axis_km": 6863.631456917841,
      "eccentricity": 0.00012984,
      "inclination_deg": 43.0013,
      "raan_deg": 178.2268,
      "arg_perigee_deg": 261.6987,
      "mean_anomaly_deg": 98.3717,
      "mean_motion_rev_day": 15.26763708
    },
    {
      "epoch": "2026-03-30T04:00:01.999584Z",
      "apogee_km": 486.9739526106787,
      "perigee_km": 484.4219787704351,
      "latitude_deg": 32.721925256462285,
      "longitude_deg": -34.63583520020452,
      "height_km": 487.8986377454154,
      "semi_major_axis_km": 6863.834965690557,
      "eccentricity": 0.0001859,
      "inclination_deg": 43.0024,
      "raan_deg": 169.6862,
      "arg_perigee_deg": 256.4756,
      "mean_anomaly_deg": 155.6922,
      "mean_motion_rev_day": 15.26695807
    },
    {
      "epoch": "2026-03-30T06:00:02.000160Z",
      "apogee_km": 486.8131902060295,
      "perigee_km": 484.620188952209,
      "latitude_deg": 19.5437866640899,
      "longitude_deg": 49.321503526495384,
      "height_km": 485.07693912476003,
      "semi_major_axis_km": 6863.853689579119,
      "eccentricity": 0.00015975,
      "inclination_deg": 43.0026,
      "raan_deg": 169.217,
      "arg_perigee_deg": 243.3457,
      "mean_anomaly_deg": 267.3946,
      "mean_motion_rev_day": 15.2668956
    },
    {
      "epoch": "2026-03-30T12:00:02.000160Z",
      "apogee_km": 486.60889610541835,
      "perigee_km": 484.6523105124188,
      "latitude_deg": 43.05384469785523,
      "longitude_deg": -115.04245306161856,
      "height_km": 489.7372867488091,
      "semi_major_axis_km": 6863.767603308918,
      "eccentricity": 0.00014253,
      "inclination_deg": 43.0025,
      "raan_deg": 167.8089,
      "arg_perigee_deg": 263.5286,
      "mean_anomaly_deg": 182.8502,
      "mean_motion_rev_day": 15.26718282
    },
    {
      "epoch": "2026-03-30T22:00:00.999936Z",
      "apogee_km": 486.6569187182813,
      "perigee_km": 484.40494926913925,
      "latitude_deg": -25.632732591118955,
      "longitude_deg": -142.07530727491326,
      "height_km": 491.0089591726512,
      "semi_major_axis_km": 6863.66793399371,
      "eccentricity": 0.00016405,
      "inclination_deg": 43.0029,
      "raan_deg": 165.4563,
      "arg_perigee_deg": 256.0453,
      "mean_anomaly_deg": 323.0434,
      "mean_motion_rev_day": 15.26751537
    },
    {
      "epoch": "2026-03-31T12:44:47.188608Z",
      "apogee_km": 486.5157554210364,
      "perigee_km": 484.6825887641935,
      "latitude_deg": 3.2316928581058244e-05,
      "longitude_deg": 141.88776903257758,
      "height_km": 485.58909013616255,
      "semi_major_axis_km": 6863.736172092615,
      "eccentricity": 0.00013354,
      "inclination_deg": 43.003,
      "raan_deg": 161.9915,
      "arg_perigee_deg": 256.5679,
      "mean_anomaly_deg": 103.5024,
      "mean_motion_rev_day": 15.26728769
    },
    {
      "epoch": "2026-04-01T04:26:51.856224Z",
      "apogee_km": 486.82001279636097,
      "perigee_km": 484.30240829273316,
      "latitude_deg": -1.5215860993334284e-05,
      "longitude_deg": -97.9676585031368,
      "height_km": 485.66053568516486,
      "semi_major_axis_km": 6863.698210544547,
      "eccentricity": 0.0001834,
      "inclination_deg": 43.003,
      "raan_deg": 158.3004,
      "arg_perigee_deg": 255.1814,
      "mean_anomaly_deg": 104.8834,
      "mean_motion_rev_day": 15.26741435
    },
    {
      "epoch": "2026-04-02T11:51:01.012608Z",
      "apogee_km": 486.71590437055784,
      "perigee_km": 484.37264358362336,
      "latitude_deg": -5.846629201810249e-05,
      "longitude_deg": 142.32728849342618,
      "height_km": 485.19467654021435,
      "semi_major_axis_km": 6863.68127397709,
      "eccentricity": 0.0001707,
      "inclination_deg": 43.0029,
      "raan_deg": 150.9232,
      "arg_perigee_deg": 276.2213,
      "mean_anomaly_deg": 83.8443,
      "mean_motion_rev_day": 15.26747086
    },
    {
      "epoch": "2026-04-03T12:58:20.623872Z",
      "apogee_km": 487.0598220760048,
      "perigee_km": 484.08797253169087,
      "latitude_deg": -6.120644296316241e-08,
      "longitude_deg": 118.55860891478895,
      "height_km": 484.98139765076047,
      "semi_major_axis_km": 6863.710897303848,
      "eccentricity": 0.00021649,
      "inclination_deg": 43.0028,
      "raan_deg": 145.0179,
      "arg_perigee_deg": 284.4262,
      "mean_anomaly_deg": 75.6349,
      "mean_motion_rev_day": 15.26737202
    },
    {
      "epoch": "2026-04-04T20:22:30.169056Z",
      "apogee_km": 486.58980127504583,
      "perigee_km": 484.49500632100626,
      "latitude_deg": 3.2986214001732146e-05,
      "longitude_deg": -1.1507893590533727,
      "height_km": 485.3090477191024,
      "semi_major_axis_km": 6863.679403798025,
      "eccentricity": 0.0001526,
      "inclination_deg": 43.0058,
      "raan_deg": 137.6379,
      "arg_perigee_deg": 270.5956,
      "mean_anomaly_deg": 89.4721,
      "mean_motion_rev_day": 15.2674771
    },
    {
      "epoch": "2026-04-05T08:56:10.681440Z",
      "apogee_km": 487.23061181520643,
      "perigee_km": 483.98666835078984,
      "latitude_deg": -3.272247659757341e-05,
      "longitude_deg": 166.96346582255435,
      "height_km": 485.5164619472049,
      "semi_major_axis_km": 6863.745640082998,
      "eccentricity": 0.00023631,
      "inclination_deg": 43.0063,
      "raan_deg": 134.6869,
      "arg_perigee_deg": 265.4163,
      "mean_anomaly_deg": 94.6418,
      "mean_motion_rev_day": 15.2672561
    },
    {
      "epoch": "2026-04-05T19:55:38.098848Z",
      "apogee_km": 486.6170175134557,
      "perigee_km": 484.5496649466768,
      "latitude_deg": -1.8706394184201007e-05,
      "longitude_deg": -0.9378415022831237,
      "height_km": 485.61811716691835,
      "semi_major_axis_km": 6863.720341230066,
      "eccentricity": 0.0001506,
      "inclination_deg": 43.005,
      "raan_deg": 132.1012,
      "arg_perigee_deg": 255.5797,
      "mean_anomaly_deg": 104.4887,
      "mean_motion_rev_day": 15.26734051
    },
    {
      "epoch": "2026-04-06T02:12:28.094112Z",
      "apogee_km": 486.8177692782756,
      "perigee_km": 484.33022313902984,
      "latitude_deg": 2.154343760246639e-05,
      "longitude_deg": -96.88024591527697,
      "height_km": 485.55993470440023,
      "semi_major_axis_km": 6863.710996208652,
      "eccentricity": 0.00018121,
      "inclination_deg": 43.0052,
      "raan_deg": 130.625,
      "arg_perigee_deg": 260.3592,
      "mean_anomaly_deg": 99.7055,
      "mean_motion_rev_day": 15.26737169
    },
    {
      "epoch": "2026-04-07T09:36:37.387872Z",
      "apogee_km": 486.4482939610298,
      "perigee_km": 484.6409493164201,
      "latitude_deg": 6.223899078705256e-05,
      "longitude_deg": 143.41091185430534,
      "height_km": 485.6959003686189,
      "semi_major_axis_km": 6863.681621638724,
      "eccentricity": 0.00013166,
      "inclination_deg": 43.0029,
      "raan_deg": 123.2445,
      "arg_perigee_deg": 245.5241,
      "mean_anomaly_deg": 114.5474,
      "mean_motion_rev_day": 15.2674697
    },
    {
      "epoch": "2026-04-07T19:01:52.481856Z",
      "apogee_km": 486.50467217332334,
      "perigee_km": 484.61441014588854,
      "latitude_deg": 3.6881499729857275e-05,
      "longitude_deg": -0.5008088857228864,
      "height_km": 485.5165885155614,
      "semi_major_axis_km": 6863.696541159606,
      "eccentricity": 0.0001377,
      "inclination_deg": 43.003,
      "raan_deg": 121.0326,
      "arg_perigee_deg": 259.0211,
      "mean_anomaly_deg": 101.0486,
      "mean_motion_rev_day": 15.26741992
    },
    {
      "epoch": "2026-04-08T10:43:57.048384Z",
      "apogee_km": 486.54061675384673,
      "perigee_km": 484.56758011069087,
      "latitude_deg": 3.977944117745721e-06,
      "longitude_deg": 119.6456986566268,
      "height_km": 485.5541709446828,
      "semi_major_axis_km": 6863.6910984322685,
      "eccentricity": 0.00014373,
      "inclination_deg": 43.0035,
      "raan_deg": 117.343,
      "arg_perigee_deg": 256.9397,
      "mean_anomaly_deg": 103.1294,
      "mean_motion_rev_day": 15.26743808
    },
    {
      "epoch": "2026-04-09T08:42:49.033728Z",
      "apogee_km": 486.4338261927842,
      "perigee_km": 484.48250608705075,
      "latitude_deg": -5.59258755930935e-05,
      "longitude_deg": 143.85989443199037,
      "height_km": 485.29611108429555,
      "semi_major_axis_km": 6863.595166139917,
      "eccentricity": 0.00014215,
      "inclination_deg": 43.0053,
      "raan_deg": 112.1766,
      "arg_perigee_deg": 266.4413,
      "mean_anomaly_deg": 93.6275,
      "mean_motion_rev_day": 15.26775817
    },
    {
      "epoch": "2026-04-10T01:59:09.556800Z",
      "apogee_km": 486.47067165058616,
      "perigee_km": 484.7110863715234,
      "latitude_deg": 3.1647900302949966e-05,
      "longitude_deg": -119.99327797031616,
      "height_km": 485.39396992929125,
      "semi_major_axis_km": 6863.727879011055,
      "eccentricity": 0.00012818,
      "inclination_deg": 43.0046,
      "raan_deg": 108.1182,
      "arg_perigee_deg": 268.3131,
      "mean_anomaly_deg": 91.7574,
      "mean_motion_rev_day": 15.26731536
    },
    {
      "epoch": "2026-04-11T17:14:21.080256Z",
      "apogee_km": 486.4819585115074,
      "perigee_km": 484.6946444430023,
      "latitude_deg": 5.063740794744331e-05,
      "longitude_deg": 0.37195288932210624,
      "height_km": 485.3964820164069,
      "semi_major_axis_km": 6863.725301477254,
      "eccentricity": 0.0001302,
      "inclination_deg": 43.0053,
      "raan_deg": 98.8935,
      "arg_perigee_deg": 268.0187,
      "mean_anomaly_deg": 92.0516,
      "mean_motion_rev_day": 15.26732396
    }
  ]
}